IRIDIUM 39              
1 25042U 97069D   25215.42536790  .00000623  00000+0  15771-3 0  9999
2 25042  86.3944 190.8880 0019074 143.0867 217.1654 14.49264118455801
IRIDIUM 38              
1 25043U 97069E   25215.48246516  .00000411  00000+0  12901-3 0  9997
2 25043  86.3953 213.2602 0001269  29.5560 330.5709 14.38148056452751
IRIDIUM 42              
1 25077U 97077A   25215.47710660  .00000378  00000+0  12261-3 0  9999
2 25077  86.3949 219.4883 0001891  70.2040 289.9361 14.36380554447988
IRIDIUM 44              
1 25078U 97077B   25215.51237145  .00000420  00000+0  12633-3 0  9998
2 25078  86.3973 201.2827 0001335 144.7779 215.3508 14.40271418450514
IRIDIUM 45              
1 25104U 97082A   25215.56155958  .00022507  00000+0  77401-3 0  9994
2 25104  86.3572  24.8556 0114527 153.1565 207.5672 15.23789189459258
IRIDIUM 24              
1 25105U 97082B   25215.49384884  .00000396  00000+0  11424-3 0  9994
2 25105  86.3864  60.2238 0009326 285.1660  74.8508 14.42133893450031
IRIDIUM 51              
1 25262U 98018A   25215.56457811  .00034835  00000+0  70136-3 0  9997
2 25262  86.3807  32.3150 0082880  68.3265 292.6791 15.42686410454322
IRIDIUM 57              
1 25273U 98019B   25215.28009030  .00000298  00000+0  95862-4 0  9995
2 25273  86.3984 125.5397 0002086  84.2618 275.8816 14.35919401431547
